2025-234D               
1 66056U 25234D   25296.66458490  .00020412  00000+0  91398-3 0  9996
2 66056  97.4558   2.2952 0014304 265.2381  94.7221 15.21202942   689
2025-234E               
1 66057U 25234E   25293.17857359 -.00000072  00000+0  00000+0 0  9994
2 66057  97.5180 358.8704 0019153 274.5220  85.3827 15.20597807   166
CZ-5 R/B                
1 66143U 25238B   25296.98079824  .00010977  14946-5  69586-3 0  9991
2 66143  16.4331 273.2361 7596403 164.2686 249.4416  1.92710720    22
SPAINSAT NG II          
1 66144U 25239A   25296.73548338  .00010530  13104-3  81898-7 0  9999
2 66144  26.7338 247.1645 8251514 175.6218 205.7596  1.23669125    17
